NORAD_CAT_ID,OBJECT_NAME,OBJECT_TYPE,EPOCH,MEAN_MOTION,ECCENTRICITY,INCLINATION,RA_OF_ASC_NODE,ARG_OF_PERICENTER,MEAN_ANOMALY,BSTAR,MEAN_MOTION_DOT,MEAN_MOTION_DDOT,TLE_LINE0,TLE_LINE1,TLE_LINE2,SEMIMAJOR_AXIS,PERIOD,APOGEE,PERIGEE,DECAYED
52697.0,STARLINK-4018,PAYLOAD,2022-09-03 22:00:00,15.08855687,0.0002168,53.2168,147.7004,58.8116,330.3677,-0.001379,-0.00022178,0.0,0 STARLINK-4018,1 52697U 22053AT  22246.91667824 -.00022178  00000-0 -13790-2 0  9994,2 52697  53.2168 147.7004 0002168  58.8116 330.3677 15.08855687  1301,6917.831999999999,95.437,541.197,538.198,0.0
52697.0,STARLINK-4018,PAYLOAD,2022-09-04 06:00:00,15.08848768,0.0002213,53.2165,146.2045,54.5874,346.2002,0.0015456,0.00024402,0.0,0 STARLINK-4018,1 52697U 22053AT  22247.25001157  .00024402  00000-0  15456-2 0  9994,2 52697  53.2165 146.2045 0002213  54.5874 346.2002 15.08848768 17073,6917.854,95.437,541.25,538.188,0.0
52697.0,STARLINK-4018,PAYLOAD,2022-09-04 14:00:01,15.08822855,0.0001940999999999,53.2167,144.7063,58.4978,353.9675,0.0018081,0.00028592,0.0,0 STARLINK-4018,1 52697U 22053AT  22247.58335648  .00028592  00000-0  18081-2 0  9996,2 52697  53.2167 144.7063 0001941  58.4978 353.9675 15.08822855  1302,6917.933000000001,95.439,541.141,538.455,0.0
52697.0,STARLINK-4018,PAYLOAD,2022-09-04 16:00:00,15.08839992,0.0001973,53.2168,144.3322,60.1426,85.1511,-0.00016237,-2.871e-05,0.0,0 STARLINK-4018,1 52697U 22053AT  22247.66667824 -.00002871  00000-0 -16237-3 0  9995,2 52697  53.2168 144.3322 0001973  60.1426  85.1511 15.08839992 17142,6917.88,95.438,541.11,538.381,0.0
52697.0,STARLINK-4018,PAYLOAD,2022-09-04 20:00:01,15.08852475,0.0001988,53.217,143.5849,58.3804,272.7077,-0.0024524,-0.00039121,0.0,0 STARLINK-4018,1 52697U 22053AT  22247.83334491 -.00039121  00000-0 -24524-2 0  9990,2 52697  53.2170 143.5849 0001988  58.3804 272.7077 15.08852475  1308,6917.842,95.437,541.0830000000002,538.332,0.0
52697.0,STARLINK-4018,PAYLOAD,2022-09-05 14:00:01,15.08809602,0.000186,53.2172,140.2173,56.0827,31.0958,0.0021644999999999,0.000343,0.0,0 STARLINK-4018,1 52697U 22053AT  22248.58334491  .00034300  00000-0  21645-2 0  9996,2 52697  53.2172 140.2173 0001860  56.0827  31.0958 15.08809602  1301,6917.973000000001,95.439,541.125,538.552,0.0
52697.0,STARLINK-4018,PAYLOAD,2022-09-05 20:00:01,15.088433800000002,0.0001934,53.2176,139.096,55.1866,310.6648,-0.00085165,-0.00013818,0.0,0 STARLINK-4018,1 52697U 22053AT  22248.83334491 -.00013818  00000-0 -85165-3 0  9995,2 52697  53.2176 139.0960 0001934  55.1866 310.6648 15.08843380 17311,6917.87,95.437,541.073,538.3969999999998,0.0
52697.0,STARLINK-4018,PAYLOAD,2022-09-05 22:00:00,15.08843033,0.0001984,53.2174,138.7225,53.3822,45.368,-0.0011077,-0.00017876,0.0,0 STARLINK-4018,1 52697U 22053AT  22248.91667824 -.00017876  00000-0 -11077-2 0  9991,2 52697  53.2174 138.7225 0001984  53.3822  45.3680 15.08843033  1301,6917.871,95.437,541.109,538.364,0.0
52697.0,STARLINK-4018,PAYLOAD,2022-09-06 14:00:01,15.08804187,0.0001819,53.2179,135.7285,54.5284,67.4012,0.0033799999999999,0.00053863,0.0,0 STARLINK-4018,1 52697U 22053AT  22249.58334491  .00053863  00000-0  33800-2 0  9998,2 52697  53.2179 135.7285 0001819  54.5284  67.4012 15.08804187  1302,6917.99,95.44,541.113,538.596,0.0
52697.0,STARLINK-4018,PAYLOAD,2022-09-06 22:00:00,15.08843565,0.0001983,53.2181,134.2338,52.0909,81.4114,-0.00071809,-0.000117,0.0,0 STARLINK-4018,1 52697U 22053AT  22249.91667824 -.00011700  00000-0 -71809-3 0  9992,2 52697  53.2181 134.2338 0001983  52.0909  81.4114 15.08843565 17485,6917.869000000002,95.437,541.106,538.363,0.0
52697.0,STARLINK-4018,PAYLOAD,2022-09-07 14:00:01,15.08809048,0.0001785,53.2185,131.2398,54.2713,102.4274,0.0030269,0.00048174,0.0,0 STARLINK-4018,1 52697U 22053AT  22250.58334491  .00048174  00000-0  30269-2 0  9995,2 52697  53.2185 131.2398 0001785  54.2713 102.4274 15.08809048  1302,6917.975,95.44,541.075,538.605,0.0
52697.0,STARLINK-4018,PAYLOAD,2022-09-07 22:00:00,15.08841541,0.000194,53.2185,129.7451,50.9667,117.3079,-0.00059969,-9.82e-05,0.0,0 STARLINK-4018,1 52697U 22053AT  22250.91667824 -.00009820  00000-0 -59969-3 0  9997,2 52697  53.2185 129.7451 0001940  50.9667 117.3079 15.08841541  1300,6917.876,95.437,541.0830000000002,538.399,0.0
52697.0,STARLINK-4018,PAYLOAD,2022-09-08 06:00:00,15.08866589,0.000192,53.2183,128.2487,48.957,130.9056,-0.0025844,-0.00041214,0.0,0 STARLINK-4018,1 52697U 22053AT  22251.25001157 -.00041214  00000-0 -25844-2 0  9993,2 52697  53.2183 128.2487 0001920  48.9570 130.9056 15.08866589 17682,6917.799,95.436,540.992,538.336,0.0
52697.0,STARLINK-4018,PAYLOAD,2022-09-08 14:00:01,15.08816477,0.0001702,53.2185,126.751,54.0058,137.4706,0.0022291,0.00035344,0.0,0 STARLINK-4018,1 52697U 22053AT  22251.58334491  .00035344  00000-0  22291-2 0  9997,2 52697  53.2185 126.7510 0001702  54.0058 137.4706 15.08816477  1308,6917.9519999999975,95.439,540.995,538.64,0.0
52697.0,STARLINK-4018,PAYLOAD,2022-09-08 22:00:00,15.0884078,0.0001859,53.2184,125.2564,50.0459,153.0147,-0.00029906,-5.045e-05,0.0,0 STARLINK-4018,1 52697U 22053AT  22251.91667824 -.00005045  00000-0 -29906-3 0  9991,2 52697  53.2184 125.2564 0001859  50.0459 153.0147 15.08840780  1301,6917.878000000002,95.438,541.029,538.457,0.0
52697.0,STARLINK-4018,PAYLOAD,2022-09-09 14:00:01,15.08849295,0.0001754999999999,53.2181,122.2621,57.40600000000001,168.8556,-0.00024893,-4.249e-05,0.0,0 STARLINK-4018,1 52697U 22053AT  22252.58334491 -.00004249  00000-0 -24893-3 0  9991,2 52697  53.2181 122.2621 0001755  57.4060 168.8556 15.08849295  1301,6917.852,95.437,540.931,538.503,0.0
52697.0,STARLINK-4018,PAYLOAD,2022-09-09 20:00:01,15.08847652,0.0001885,53.218,121.1412,55.1527,89.815,-0.0012108,-0.00019511,0.0,0 STARLINK-4018,1 52697U 22053AT  22252.83334491 -.00019511  00000-0 -12108-2 0  9992,2 52697  53.2180 121.1412 0001885  55.1527  89.8150 15.08847652 17925,6917.857,95.437,541.026,538.418,0.0
52697.0,STARLINK-4018,PAYLOAD,2022-09-09 22:00:00,15.08837606,0.0001953,53.2178,120.7675,53.9217,183.9478,-1.0127e-05,-4.49e-06,0.0,0 STARLINK-4018,1 52697U 22053AT  22252.91667824 -.00000449  00000-0 -10127-4 0  9991,2 52697  53.2178 120.7675 0001953  53.9217 183.9478 15.08837606  1308,6917.888000000001,95.438,541.104,538.4019999999998,0.0
52697.0,STARLINK-4018,PAYLOAD,2022-09-10 14:00:01,15.08842379,0.000162,53.2173,117.773,60.8061,200.2313,0.0004763,7.301e-05,0.0,0 STARLINK-4018,1 52697U 22053AT  22253.58334491  .00007301  00000-0  47630-3 0  9996,2 52697  53.2173 117.7730 0001620  60.8061 200.2313 15.08842379  1300,6917.873000000001,95.437,540.859,538.617,0.0
52697.0,STARLINK-4018,PAYLOAD,2022-09-10 22:00:00,15.08841035,0.0001743,53.2171,116.2784,54.1944,218.448,0.00019385,2.798e-05,0.0,0 STARLINK-4018,1 52697U 22053AT  22253.91667824  .00002798  00000-0  19385-3 0  9993,2 52697  53.2171 116.2784 0001743  54.1944 218.4480 15.08841035  1307,6917.877,95.437,540.948,538.536,0.0
52697.0,STARLINK-4018,PAYLOAD,2022-09-11 14:00:01,15.08824794,0.0001541999999999,53.2167,113.2836,59.2999,236.5598,0.0023881,0.00037908,0.0,0 STARLINK-4018,1 52697U 22053AT  22254.58334491  .00037908  00000-0  23881-2 0  9994,2 52697  53.2167 113.2836 0001542  59.2999 236.5598 15.08824794 18188,6917.927,95.439,540.859,538.725,0.0
52697.0,STARLINK-4018,PAYLOAD,2022-09-11 22:00:00,15.08844168,0.0001679,53.2166,111.789,51.9876,255.4669,2.8237e-05,1.61e-06,0.0,0 STARLINK-4018,1 52697U 22053AT  22254.91667824  .00000161  00000-0  28237-4 0  9993,2 52697  53.2166 111.7890 0001679  51.9876 255.4669 15.08844168  1306,6917.868,95.437,540.894,538.571,0.0
52697.0,STARLINK-4018,PAYLOAD,2022-09-12 04:00:00,15.08858655,0.0001625,53.2163,110.6663,48.8194,177.3243,-0.0028699999999999,-0.00045698,0.0,0 STARLINK-4018,1 52697U 22053AT  22255.16667824 -.00045698  00000-0 -28700-2 0  9990,2 52697  53.2163 110.6663 0001625  48.8194 177.3243 15.08858655 18278,6917.823,95.436,540.813,538.564,0.0
52697.0,STARLINK-4018,PAYLOAD,2022-09-12 12:00:00,15.08811187,0.0001483,53.2164,109.1682,54.6528,183.0996,0.0031184999999999,0.00049654,0.0,0 STARLINK-4018,1 52697U 22053AT  22255.50001157  .00049654  00000-0  31185-2 0  9994,2 52697  53.2164 109.1682 0001483  54.6528 183.0996 15.08811187 18325,6917.968000000003,95.439,540.859,538.808,0.0
52697.0,STARLINK-4018,PAYLOAD,2022-09-12 14:00:01,15.08825422,0.0001505,53.2166,108.7942,56.3565,274.2855,0.0022957,0.00036423,0.0,0 STARLINK-4018,1 52697U 22053AT  22255.58334491  .00036423  00000-0  22957-2 0  9999,2 52697  53.2166 108.7942 0001505  56.3565 274.2855 15.08825422  1300,6917.925,95.438,540.831,538.749,0.0
52697.0,STARLINK-4018,PAYLOAD,2022-09-12 22:00:00,15.08844466,0.0001725,53.2166,107.2995,50.1893,292.0475,-0.00018489,-3.2299999999999986e-05,0.0,0 STARLINK-4018,1 52697U 22053AT  22255.91667824 -.00003230  00000-0 -18489-3 0  9993,2 52697  53.2166 107.2995 0001725  50.1893 292.0475 15.08844466  1307,6917.8669999999975,95.437,540.925,538.538,0.0
52697.0,STARLINK-4018,PAYLOAD,2022-09-13 06:00:00,15.08853272,0.0001698,53.2166,105.8021,50.9922,302.8446,-0.0026199,-0.00041758,0.0,0 STARLINK-4018,1 52697U 22053AT  22256.25001157 -.00041758  00000-0 -26199-2 0  9995,2 52697  53.2166 105.8021 0001698  50.9922 302.8446 15.08853272 18436,6917.84,95.437,540.879,538.53,0.0
52697.0,STARLINK-4018,PAYLOAD,2022-09-13 14:00:01,15.08842422,0.0001631999999999,53.217,104.3048,57.1437,308.2829,3.3081e-05,2.39e-06,0.0,0 STARLINK-4018,1 52697U 22053AT  22256.58334491  .00000239  00000-0  33081-4 0  9998,2 52697  53.2170 104.3048 0001632  57.1437 308.2829 15.08842422  1300,6917.873000000001,95.437,540.867,538.609,0.0
52697.0,STARLINK-4018,PAYLOAD,2022-09-13 16:00:00,15.08868653,0.0001662,53.217,103.9317,56.0323,42.2864,-0.003834,-0.00060839,0.0,0 STARLINK-4018,1 52697U 22053AT  22256.66667824 -.00060839  00000-0 -38340-2 0  9991,2 52697  53.2170 103.9317 0001662  56.0323  42.2864 15.08868653 18507,6917.793000000002,95.436,540.808,538.508,0.0
